[{"OBJECT_NAME":"MOHAMMED VI-A","OBJECT_ID":"2017-070A","EPOCH":"2026-03-09T23:14:54.770208","MEAN_MOTION":14.771271,"ECCENTRICITY":0.00014633,"INCLINATION":97.9427,"RA_OF_ASC_NODE":142.7067,"ARG_OF_PERICENTER":97.7701,"MEAN_ANOMALY":262.3676,"EPHEMERIS_TYPE":0,"CLASSIFICATION_TYPE":"U","NORAD_CAT_ID":43005,"ELEMENT_SET_NO":999,"REV_AT_EPOCH":44933,"BSTAR":0.00019951362,"MEAN_MOTION_DOT":1.36e-5,"MEAN_MOTION_DDOT":0},{"OBJECT_NAME":"COSMOS 2251 DEB","OBJECT_ID":"1993-036ARD","EPOCH":"2026-03-06T07:07:03.464832","MEAN_MOTION":14.65225334,"ECCENTRICITY":0.00761326,"INCLINATION":74.0382,"RA_OF_ASC_NODE":55.3171,"ARG_OF_PERICENTER":154.5075,"MEAN_ANOMALY":205.988,"EPHEMERIS_TYPE":0,"CLASSIFICATION_TYPE":"U","NORAD_CAT_ID":35759,"ELEMENT_SET_NO":999,"REV_AT_EPOCH":67359,"BSTAR":0.00030100364,"MEAN_MOTION_DOT":1.659e-5,"MEAN_MOTION_DDOT":0}]
